[{"OBJECT_NAME":"DOJO","OBJECT_ID":"2025-185F","EPOCH":"2026-03-09T17:11:19.626432","MEAN_MOTION":14.77363091,"ECCENTRICITY":0.00117501,"INCLINATION":97.9656,"RA_OF_ASC_NODE":153.1684,"ARG_OF_PERICENTER":55.9365,"MEAN_ANOMALY":304.2959,"EPHEMERIS_TYPE":0,"CLASSIFICATION_TYPE":"U","NORAD_CAT_ID":65302,"ELEMENT_SET_NO":999,"REV_AT_EPOCH":2914,"BSTAR":0.00075654511,"MEAN_MOTION_DOT":5.335e-5,"MEAN_MOTION_DDOT":0},{"OBJECT_NAME":"SL-14 R\/B","OBJECT_ID":"1991-039B","EPOCH":"2026-03-09T15:48:43.025184","MEAN_MOTION":14.81841975,"ECCENTRICITY":0.00211429,"INCLINATION":82.523,"RA_OF_ASC_NODE":136.5072,"ARG_OF_PERICENTER":162.3905,"MEAN_ANOMALY":197.8047,"EPHEMERIS_TYPE":0,"CLASSIFICATION_TYPE":"U","NORAD_CAT_ID":21398,"ELEMENT_SET_NO":999,"REV_AT_EPOCH":85439,"BSTAR":6.0636888e-5,"MEAN_MOTION_DOT":5.04e-6,"MEAN_MOTION_DDOT":0}]
